STARLINK-4011           
1 52615U 22052T   26068.87433207 -.00010565  00000+0 -64667-3 0  9996
2 52615  53.2176 283.2946 0001234  93.1196 266.9938 15.08839830210807
SEDNA-2                 
1 63153U 25009DQ  26068.79893845  .00008085  00000+0  49393-3 0  9990
2 63153  97.4615 144.8075 0010309  53.0260 307.1912 15.10492622 63116
